[
    {
        "Altitude(m)": 612502.2107980952,
        "Argument of Periapsis(deg)": 0.0,
        "Eccentricity": 0.0,
        "Inclination(deg)": 60.0,
        "Latitude(deg)": -28.136025529060337,
        "Longitude(deg)": 22.148301498862388,
        "Mean Anomaly(deg)": -32.72730000000001,
        "RAAN(deg)": 140.0,
        "Satellite Name": "Test1 636",
        "Satellite Number": 636,
        "Semi-Major Axis(m)": 6980739.136638005,
        "Time(s)": 0
    },
    {
        "Altitude(m)": 612308.6583043438,
        "Argument of Periapsis(deg)": 0.00010418945913296404,
        "Eccentricity": 0.0,
        "Inclination(deg)": 60.0,
        "Latitude(deg)": -27.623080230734,
        "Longitude(deg)": 22.501774697993188,
        "Mean Anomaly(deg)": -32.10719385453816,
        "RAAN(deg)": 139.99957995086024,
        "Satellite Name": "Test1 636",
        "Satellite Number": 636,
        "Semi-Major Axis(m)": 6980739.136638005,
        "Time(s)": 10
    }
]